{
  "type": "FeatureCollection",
  "features": [
    {
      "type": "Feature",
      "properties": {
        "norad_id": 29961,
        "name": "FENGYUN 1C DEB",
        "group": "fengyun-1c-debris",
        "lat": -7.480344158785054,
        "lon": -110.9393476710382,
        "alt_km": 805.0072501617087,
        "timestamp": "2025-12-26T04:40:06.059208+00:00",
        "meta_object_name": "FENGYUN 1C DEB",
        "meta_object_id": "1999-025KK",
        "meta_epoch": "2025-12-25T15:14:02.728320",
        "meta_mean_motion": 14.26226839,
        "meta_eccentricity": 0.0073819,
        "meta_inclination": 98.9481,
        "meta_ra_of_asc_node": 247.3036,
        "meta_arg_of_pericenter": 267.1982,
        "meta_mean_anomaly": 92.0746,
        "meta_ephemeris_type": 0,
        "meta_classification_type": "U",
        "meta_norad_cat_id": 29961,
        "meta_element_set_no": 999,
        "meta_rev_at_epoch": 98493,
        "meta_bstar": 0.00019743,
        "meta_mean_motion_dot": 4.4e-06,
        "meta_mean_motion_ddot": 0,
        "tle_line1": "1 29961U 99025KK  25359.63475380  .00000440  00000+0  19743-3 0  9996",
        "tle_line2": "2 29961  98.9481 247.3036 0073819 267.1982  92.0746 14.26226839984930"
      },
      "geometry": {
        "type": "Point",
        "coordinates": [
          -110.9393476710382,
          -7.480344158785054
        ]
      }
    },
    {
      "type": "Feature",
      "properties": {
        "norad_id": 29962,
        "name": "FENGYUN 1C DEB",
        "group": "fengyun-1c-debris",
        "lat": -37.26094183703876,
        "lon": 14.70915160169844,
        "alt_km": 935.4604781771404,
        "timestamp": "2025-12-26T04:40:06.059218+00:00",
        "meta_object_name": "FENGYUN 1C DEB",
        "meta_object_id": "1999-025KL",
        "meta_epoch": "2025-12-25T23:52:11.928864",
        "meta_mean_motion": 14.07165016,
        "meta_eccentricity": 0.01102809,
        "meta_inclination": 98.7681,
        "meta_ra_of_asc_node": 7.7728,
        "meta_arg_of_pericenter": 183.7636,
        "meta_mean_anomaly": 205.4713,
        "meta_ephemeris_type": 0,
        "meta_classification_type": "U",
        "meta_norad_cat_id": 29962,
        "meta_element_set_no": 999,
        "meta_rev_at_epoch": 97184,
        "meta_bstar": 3.4562265e-05,
        "meta_mean_motion_dot": 1.9e-07,
        "meta_mean_motion_ddot": 0,
        "tle_line1": "1 29962U 99025KL  25359.99458251  .00000019  00000+0  34562-4 0  9993",
        "tle_line2": "2 29962  98.7681   7.7728 0110280 183.7636 205.4713 14.07165016971848"
      },
      "geometry": {
        "type": "Point",
        "coordinates": [
          14.70915160169844,
          -37.26094183703876
        ]
      }
    },
    {
      "type": "Feature",
      "properties": {
        "norad_id": 29963,
        "name": "FENGYUN 1C DEB",
        "group": "fengyun-1c-debris",
        "lat": 31.84421189449508,
        "lon": 70.24425297563812,
        "alt_km": 806.9581180558516,
        "timestamp": "2025-12-26T04:40:06.059229+00:00",
        "meta_object_name": "FENGYUN 1C DEB",
        "meta_object_id": "1999-025KM",
        "meta_epoch": "2025-12-25T09:45:34.637760",
        "meta_mean_motion": 14.29502919,
        "meta_eccentricity": 0.0050916,
        "meta_inclination": 98.9986,
        "meta_ra_of_asc_node": 243.7827,
        "meta_arg_of_pericenter": 265.2026,
        "meta_mean_anomaly": 150.7112,
        "meta_ephemeris_type": 0,
        "meta_classification_type": "U",
        "meta_norad_cat_id": 29963,
        "meta_element_set_no": 999,
        "meta_rev_at_epoch": 98324,
        "meta_bstar": 0.00066324,
        "meta_mean_motion_dot": 1.671e-05,
        "meta_mean_motion_ddot": 0,
        "tle_line1": "1 29963U 99025KM  25359.40665090  .00001671  00000+0  66324-3 0  9996",
        "tle_line2": "2 29963  98.9986 243.7827 0050916 265.2026 150.7112 14.29502919983242"
      },
      "geometry": {
        "type": "Point",
        "coordinates": [
          70.24425297563812,
          31.84421189449508
        ]
      }
    },
    {
      "type": "Feature",
      "properties": {
        "norad_id": 29964,
        "name": "FENGYUN 1C DEB",
        "group": "fengyun-1c-debris",
        "lat": -7.339714113063742,
        "lon": 20.53971028951177,
        "alt_km": 818.9774977866036,
        "timestamp": "2025-12-26T04:40:06.059239+00:00",
        "meta_object_name": "FENGYUN 1C DEB",
        "meta_object_id": "1999-025KN",
        "meta_epoch": "2025-12-25T12:21:39.258144",
        "meta_mean_motion": 14.02772522,
        "meta_eccentricity": 0.0130925,
        "meta_inclination": 98.3701,
        "meta_ra_of_asc_node": 201.0014,
        "meta_arg_of_pericenter": 233.1938,
        "meta_mean_anomaly": 125.716,
        "meta_ephemeris_type": 0,
        "meta_classification_type": "U",
        "meta_norad_cat_id": 29964,
        "meta_element_set_no": 999,
        "meta_rev_at_epoch": 96496,
        "meta_bstar": 0.00074036,
        "meta_mean_motion_dot": 1.195e-05,
        "meta_mean_motion_ddot": 0,
        "tle_line1": "1 29964U 99025KN  25359.51503771  .00001195  00000+0  74036-3 0  9996",
        "tle_line2": "2 29964  98.3701 201.0014 0130925 233.1938 125.7160 14.02772522964965"
      },
      "geometry": {
        "type": "Point",
        "coordinates": [
          20.53971028951177,
          -7.339714113063742
        ]
      }
    },
    {
      "type": "Feature",
      "properties": {
        "norad_id": 29965,
        "name": "FENGYUN 1C DEB",
        "group": "fengyun-1c-debris",
        "lat": -39.42863762060309,
        "lon": 1.918562399898239,
        "alt_km": 879.1683936092932,
        "timestamp": "2025-12-26T04:40:06.059250+00:00",
        "meta_object_name": "FENGYUN 1C DEB",
        "meta_object_id": "1999-025KP",
        "meta_epoch": "2025-12-25T22:14:50.901792",
        "meta_mean_motion": 13.95781767,
        "meta_eccentricity": 0.0145787,
        "meta_inclination": 98.9632,
        "meta_ra_of_asc_node": 354.2019,
        "meta_arg_of_pericenter": 31.9827,
        "meta_mean_anomaly": 26.0872,
        "meta_ephemeris_type": 0,
        "meta_classification_type": "U",
        "meta_norad_cat_id": 29965,
        "meta_element_set_no": 999,
        "meta_rev_at_epoch": 96460,
        "meta_bstar": 0.00029362328,
        "meta_mean_motion_dot": 3.95e-06,
        "meta_mean_motion_ddot": 0,
        "tle_line1": "1 29965U 99025KP  25359.92697803  .00000395  00000+0  29362-3 0  9995",
        "tle_line2": "2 29965  98.9632 354.2019 0145787  31.9827  26.0872 13.95781767964600"
      },
      "geometry": {
        "type": "Point",
        "coordinates": [
          1.918562399898239,
          -39.42863762060309
        ]
      }
    },
    {
      "type": "Feature",
      "properties": {
        "norad_id": 29966,
        "name": "FENGYUN 1C DEB",
        "group": "fengyun-1c-debris",
        "lat": 3.079806007912978,
        "lon": 28.7780785632408,
        "alt_km": 826.545835220013,
        "timestamp": "2025-12-26T04:40:06.059260+00:00",
        "meta_object_name": "FENGYUN 1C DEB",
        "meta_object_id": "1999-025KQ",
        "meta_epoch": "2025-12-25T19:25:03.227232",
        "meta_mean_motion": 14.25775987,
        "meta_eccentricity": 0.00392117,
        "meta_inclination": 99.4909,
        "meta_ra_of_asc_node": 207.8454,
        "meta_arg_of_pericenter": 308.2054,
        "meta_mean_anomaly": 51.5594,
        "meta_ephemeris_type": 0,
        "meta_classification_type": "U",
        "meta_norad_cat_id": 29966,
        "meta_element_set_no": 999,
        "meta_rev_at_epoch": 98229,
        "meta_bstar": 0.00038798574,
        "meta_mean_motion_dot": 8.78e-06,
        "meta_mean_motion_ddot": 0,
        "tle_line1": "1 29966U 99025KQ  25359.80906513  .00000878  00000+0  38799-3 0  9994",
        "tle_line2": "2 29966  99.4909 207.8454 0039211 308.2054  51.5594 14.25775987982296"
      },
      "geometry": {
        "type": "Point",
        "coordinates": [
          28.7780785632408,
          3.079806007912978
        ]
      }
    },
    {
      "type": "Feature",
      "properties": {
        "norad_id": 29967,
        "name": "FENGYUN 1C DEB",
        "group": "fengyun-1c-debris",
        "lat": -66.34692956224782,
        "lon": -123.96813639489788,
        "alt_km": 765.1039112800363,
        "timestamp": "2025-12-26T04:40:06.059270+00:00",
        "meta_object_name": "FENGYUN 1C DEB",
        "meta_object_id": "1999-025KR",
        "meta_epoch": "2025-12-25T04:01:46.363008",
        "meta_mean_motion": 14.23674669,
        "meta_eccentricity": 0.0076868,
        "meta_inclination": 98.8643,
        "meta_ra_of_asc_node": 75.8707,
        "meta_arg_of_pericenter": 256.4569,
        "meta_mean_anomaly": 132.8645,
        "meta_ephemeris_type": 0,
        "meta_classification_type": "U",
        "meta_norad_cat_id": 29967,
        "meta_element_set_no": 999,
        "meta_rev_at_epoch": 97399,
        "meta_bstar": 0.0015964,
        "meta_mean_motion_dot": 3.711e-05,
        "meta_mean_motion_ddot": 0,
        "tle_line1": "1 29967U 99025KR  25359.16789772  .00003711  00000+0  15964-2 0  9997",
        "tle_line2": "2 29967  98.8643  75.8707 0076868 256.4569 132.8645 14.23674669973993"
      },
      "geometry": {
        "type": "Point",
        "coordinates": [
          -123.96813639489788,
          -66.34692956224782
        ]
      }
    }
  ]
}